[{"OBJECT_NAME":"STARLINK-31504","OBJECT_ID":"2024-056H","EPOCH":"2026-03-09T10:22:15.882528","MEAN_MOTION":15.27566705,"ECCENTRICITY":0.00012247,"INCLINATION":43.0012,"RA_OF_ASC_NODE":232.2747,"ARG_OF_PERICENTER":274.4841,"MEAN_ANOMALY":85.5871,"EPHEMERIS_TYPE":0,"CLASSIFICATION_TYPE":"U","NORAD_CAT_ID":59303,"ELEMENT_SET_NO":999,"REV_AT_EPOCH":11111,"BSTAR":1.9371967e-5,"MEAN_MOTION_DOT":2.71e-6,"MEAN_MOTION_DDOT":0},{"OBJECT_NAME":"OBJECT V","OBJECT_ID":"2025-155V","EPOCH":"2026-03-09T20:35:20.067360","MEAN_MOTION":15.27583301,"ECCENTRICITY":0.00080353,"INCLINATION":97.4485,"RA_OF_ASC_NODE":37.249,"ARG_OF_PERICENTER":152.8264,"MEAN_ANOMALY":207.3397,"EPHEMERIS_TYPE":0,"CLASSIFICATION_TYPE":"U","NORAD_CAT_ID":64895,"ELEMENT_SET_NO":999,"REV_AT_EPOCH":6557,"BSTAR":0.00051002361,"MEAN_MOTION_DOT":0.00013705,"MEAN_MOTION_DDOT":0}]
